{
  "norad_id": 64523,
  "name": "KUIPER-00063",
  "history": [
    {
      "epoch": "2026-03-28T20:53:58.839360",
      "apogee_km": 629.7764624480287,
      "perigee_km": 629.256915003547,
      "latitude_deg": 11.633862697280968,
      "longitude_deg": -4.101289599901065,
      "semi_major_axis_km": 7007.653688725787,
      "eccentricity": 3.707e-05,
      "inclination_deg": 51.9022,
      "raan_deg": 153.2848,
      "arg_perigee_deg": 36.0169,
      "mean_anomaly_deg": 324.0819,
      "mean_motion_rev_day": 14.79939
    }
  ]
}